NUSAT-48 (HENRIETTA LE*)
1 60498U 24149AG  26068.80506098  .00012988  00000+0  45212-3 0  9999
2 60498  97.3923 150.8264 0002754 263.3026  96.7901 15.29812597 86946
STARLINK-34288          
1 64673U 25139K   26068.55074838  .00026758  00000+0  91259-3 0  9994
2 64673  53.1606 127.6292 0001552  69.0226 291.0941 15.30189984 40262
